STARLINK-35710          
1 66212U 25244G   25325.16668980 -.02276756  00000+0 -58935-1 0  9992
2 66212  53.1601  17.6769 0001067  74.7098 233.4429 15.41928024  4872
STARLINK-34204          
1 66213U 25244H   25325.16668980  .00053573  00000+0  13414-2 0  9993
2 66213  53.1596  17.7214 0001392  96.9947 189.1554 15.39587212  5067
STARLINK-35714          
1 66214U 25244J   25324.46099488  .00067374  00000+0  12081-2 0  9990
2 66214  53.1596  20.9901 0001159  76.1952 283.9186 15.49329849  4888
STARLINK-35712          
1 66215U 25244K   25324.71833981  .00055704  00000+0  10016-2 0  9993
2 66215  53.1598  19.7518 0001278  82.1917 277.9237 15.49333272  4921
STARLINK-35709          
1 66216U 25244L   25325.16668980 -.02237997  00000+0 -57896-1 0  9995
2 66216  53.1597  17.6729 0000848  72.8809 237.1344 15.41889435  4746
STARLINK-35700          
1 66217U 25244M   25325.16668980 -.02058969  00000+0 -48954-1 0  9991
2 66217  53.1600  17.6420 0001065 105.0571 220.7566 15.44645677  4742
STARLINK-35722          
1 66218U 25244N   25325.16668980 -.02051218  00000+0 -48771-1 0  9999
2 66218  53.1592  17.6383 0001130 108.0963 219.5954 15.44630558  4741
STARLINK-35737          
1 66219U 25244P   25324.78319759  .00063522  00000+0  11412-2 0  9994
2 66219  53.1598  19.4470 0001243  54.9691 305.1434 15.49300381  4936
STARLINK-35677          
1 66220U 25244Q   25324.78250718  .00089876  00000+0  16049-2 0  9996
2 66220  53.1599  19.4421 0001916  56.8193 303.3000 15.49318782  4933
STARLINK-35704          
1 66221U 25244R   25324.78216321  .00094431  00000+0  16834-2 0  9994
2 66221  53.1599  19.4390 0001842  80.8430 279.2787 15.49342763  4937
STARLINK-35666          
1 66222U 25244S   25324.65245564  .00048813  00000+0  87897-3 0  9993
2 66222  53.1599  20.0513 0001271  88.2617 271.8537 15.49349705  4910
STARLINK-35664          
1 66223U 25244T   25324.71731139  .00068255  00000+0  12235-2 0  9994
2 66223  53.1600  19.7457 0001868  55.5831 304.5354 15.49332624  4927
