CCSDS_OMM_VERS = 2.0
CREATION_DATE  = 
ORIGINATOR     = 

OBJECT_NAME    = STARLINK-35710
OBJECT_ID      = 2025-244G
CENTER_NAME    = EARTH
REF_FRAME      = TEME
TIME_SYSTEM    = UTC
MEAN_ELEMENT_THEORY = SGP/SGP4

EPOCH          = 2025-11-21T04:00:01.998720
MEAN_MOTION    = 15.41928024
ECCENTRICITY   = .0001067
INCLINATION    = 53.1601
RA_OF_ASC_NODE = 17.6769
ARG_OF_PERICENTER = 74.7098
MEAN_ANOMALY   = 233.4429

EPHEMERIS_TYPE = 0
CLASSIFICATION_TYPE = U
NORAD_CAT_ID   = 66212
ELEMENT_SET_NO = 999
REV_AT_EPOCH   = 487
BSTAR          = -.58935E-1
MEAN_MOTION_DOT = -.2276756E-1
MEAN_MOTION_DDOT = 0

CCSDS_OMM_VERS = 2.0
CREATION_DATE  = 
ORIGINATOR     = 

OBJECT_NAME    = STARLINK-34204
OBJECT_ID      = 2025-244H
CENTER_NAME    = EARTH
REF_FRAME      = TEME
TIME_SYSTEM    = UTC
MEAN_ELEMENT_THEORY = SGP/SGP4

EPOCH          = 2025-11-21T04:00:01.998720
MEAN_MOTION    = 15.39587212
ECCENTRICITY   = .0001392
INCLINATION    = 53.1596
RA_OF_ASC_NODE = 17.7214
ARG_OF_PERICENTER = 96.9947
MEAN_ANOMALY   = 189.1554

EPHEMERIS_TYPE = 0
CLASSIFICATION_TYPE = U
NORAD_CAT_ID   = 66213
ELEMENT_SET_NO = 999
REV_AT_EPOCH   = 506
BSTAR          = .13414E-2
MEAN_MOTION_DOT = .53573E-3
MEAN_MOTION_DDOT = 0

CCSDS_OMM_VERS = 2.0
CREATION_DATE  = 
ORIGINATOR     = 

OBJECT_NAME    = STARLINK-35714
OBJECT_ID      = 2025-244J
CENTER_NAME    = EARTH
REF_FRAME      = TEME
TIME_SYSTEM    = UTC
MEAN_ELEMENT_THEORY = SGP/SGP4

EPOCH          = 2025-11-20T11:03:49.957632
MEAN_MOTION    = 15.49329849
ECCENTRICITY   = .00011596
INCLINATION    = 53.1596
RA_OF_ASC_NODE = 20.9901
ARG_OF_PERICENTER = 76.1952
MEAN_ANOMALY   = 283.9186

EPHEMERIS_TYPE = 0
CLASSIFICATION_TYPE = U
NORAD_CAT_ID   = 66214
ELEMENT_SET_NO = 999
REV_AT_EPOCH   = 488
BSTAR          = .12081295E-2
MEAN_MOTION_DOT = .67374E-3
MEAN_MOTION_DDOT = 0

CCSDS_OMM_VERS = 2.0
CREATION_DATE  = 
ORIGINATOR     = 

OBJECT_NAME    = STARLINK-35712
OBJECT_ID      = 2025-244K
CENTER_NAME    = EARTH
REF_FRAME      = TEME
TIME_SYSTEM    = UTC
MEAN_ELEMENT_THEORY = SGP/SGP4

EPOCH          = 2025-11-20T17:14:24.559584
MEAN_MOTION    = 15.49333272
ECCENTRICITY   = .00012782
INCLINATION    = 53.1598
RA_OF_ASC_NODE = 19.7518
ARG_OF_PERICENTER = 82.1917
MEAN_ANOMALY   = 277.9237

EPHEMERIS_TYPE = 0
CLASSIFICATION_TYPE = U
NORAD_CAT_ID   = 66215
ELEMENT_SET_NO = 999
REV_AT_EPOCH   = 492
BSTAR          = .10016262E-2
MEAN_MOTION_DOT = .55704E-3
MEAN_MOTION_DDOT = 0

CCSDS_OMM_VERS = 2.0
CREATION_DATE  = 
ORIGINATOR     = 

OBJECT_NAME    = STARLINK-35709
OBJECT_ID      = 2025-244L
CENTER_NAME    = EARTH
REF_FRAME      = TEME
TIME_SYSTEM    = UTC
MEAN_ELEMENT_THEORY = SGP/SGP4

EPOCH          = 2025-11-21T04:00:01.998720
MEAN_MOTION    = 15.41889435
ECCENTRICITY   = .0000848
INCLINATION    = 53.1597
RA_OF_ASC_NODE = 17.6729
ARG_OF_PERICENTER = 72.8809
MEAN_ANOMALY   = 237.1344

EPHEMERIS_TYPE = 0
CLASSIFICATION_TYPE = U
NORAD_CAT_ID   = 66216
ELEMENT_SET_NO = 999
REV_AT_EPOCH   = 474
BSTAR          = -.57896E-1
MEAN_MOTION_DOT = -.2237997E-1
MEAN_MOTION_DDOT = 0

CCSDS_OMM_VERS = 2.0
CREATION_DATE  = 
ORIGINATOR     = 

OBJECT_NAME    = STARLINK-35700
OBJECT_ID      = 2025-244M
CENTER_NAME    = EARTH
REF_FRAME      = TEME
TIME_SYSTEM    = UTC
MEAN_ELEMENT_THEORY = SGP/SGP4

EPOCH          = 2025-11-21T04:00:01.998720
MEAN_MOTION    = 15.44645677
ECCENTRICITY   = .0001065
INCLINATION    = 53.1600
RA_OF_ASC_NODE = 17.6420
ARG_OF_PERICENTER = 105.0571
MEAN_ANOMALY   = 220.7566

EPHEMERIS_TYPE = 0
CLASSIFICATION_TYPE = U
NORAD_CAT_ID   = 66217
ELEMENT_SET_NO = 999
REV_AT_EPOCH   = 474
BSTAR          = -.48954E-1
MEAN_MOTION_DOT = -.2058969E-1
MEAN_MOTION_DDOT = 0

CCSDS_OMM_VERS = 2.0
CREATION_DATE  = 
ORIGINATOR     = 

OBJECT_NAME    = STARLINK-35722
OBJECT_ID      = 2025-244N
CENTER_NAME    = EARTH
REF_FRAME      = TEME
TIME_SYSTEM    = UTC
MEAN_ELEMENT_THEORY = SGP/SGP4

EPOCH          = 2025-11-21T04:00:01.998720
MEAN_MOTION    = 15.44630558
ECCENTRICITY   = .000113
INCLINATION    = 53.1592
RA_OF_ASC_NODE = 17.6383
ARG_OF_PERICENTER = 108.0963
MEAN_ANOMALY   = 219.5954

EPHEMERIS_TYPE = 0
CLASSIFICATION_TYPE = U
NORAD_CAT_ID   = 66218
ELEMENT_SET_NO = 999
REV_AT_EPOCH   = 474
BSTAR          = -.48771E-1
MEAN_MOTION_DOT = -.2051218E-1
MEAN_MOTION_DDOT = 0

CCSDS_OMM_VERS = 2.0
CREATION_DATE  = 
ORIGINATOR     = 

OBJECT_NAME    = STARLINK-35737
OBJECT_ID      = 2025-244P
CENTER_NAME    = EARTH
REF_FRAME      = TEME
TIME_SYSTEM    = UTC
MEAN_ELEMENT_THEORY = SGP/SGP4

EPOCH          = 2025-11-20T18:47:48.271776
MEAN_MOTION    = 15.49300381
ECCENTRICITY   = .00012434
INCLINATION    = 53.1598
RA_OF_ASC_NODE = 19.4470
ARG_OF_PERICENTER = 54.9691
MEAN_ANOMALY   = 305.1434

EPHEMERIS_TYPE = 0
CLASSIFICATION_TYPE = U
NORAD_CAT_ID   = 66219
ELEMENT_SET_NO = 999
REV_AT_EPOCH   = 493
BSTAR          = .11412499E-2
MEAN_MOTION_DOT = .63522E-3
MEAN_MOTION_DDOT = 0

CCSDS_OMM_VERS = 2.0
CREATION_DATE  = 
ORIGINATOR     = 

OBJECT_NAME    = STARLINK-35677
OBJECT_ID      = 2025-244Q
CENTER_NAME    = EARTH
REF_FRAME      = TEME
TIME_SYSTEM    = UTC
MEAN_ELEMENT_THEORY = SGP/SGP4

EPOCH          = 2025-11-20T18:46:48.620352
MEAN_MOTION    = 15.49318782
ECCENTRICITY   = .00019167
INCLINATION    = 53.1599
RA_OF_ASC_NODE = 19.4421
ARG_OF_PERICENTER = 56.8193
MEAN_ANOMALY   = 303.3000

EPHEMERIS_TYPE = 0
CLASSIFICATION_TYPE = U
NORAD_CAT_ID   = 66220
ELEMENT_SET_NO = 999
REV_AT_EPOCH   = 493
BSTAR          = .16049052E-2
MEAN_MOTION_DOT = .89876E-3
MEAN_MOTION_DDOT = 0

CCSDS_OMM_VERS = 2.0
CREATION_DATE  = 
ORIGINATOR     = 

OBJECT_NAME    = STARLINK-35704
OBJECT_ID      = 2025-244R
CENTER_NAME    = EARTH
REF_FRAME      = TEME
TIME_SYSTEM    = UTC
MEAN_ELEMENT_THEORY = SGP/SGP4

EPOCH          = 2025-11-20T18:46:18.901344
MEAN_MOTION    = 15.49342763
ECCENTRICITY   = .00018426
INCLINATION    = 53.1599
RA_OF_ASC_NODE = 19.4390
ARG_OF_PERICENTER = 80.8430
MEAN_ANOMALY   = 279.2787

EPHEMERIS_TYPE = 0
CLASSIFICATION_TYPE = U
NORAD_CAT_ID   = 66221
ELEMENT_SET_NO = 999
REV_AT_EPOCH   = 493
BSTAR          = .16834487E-2
MEAN_MOTION_DOT = .94431E-3
MEAN_MOTION_DDOT = 0

CCSDS_OMM_VERS = 2.0
CREATION_DATE  = 
ORIGINATOR     = 

OBJECT_NAME    = STARLINK-35666
OBJECT_ID      = 2025-244S
CENTER_NAME    = EARTH
REF_FRAME      = TEME
TIME_SYSTEM    = UTC
MEAN_ELEMENT_THEORY = SGP/SGP4

EPOCH          = 2025-11-20T15:39:32.167296
MEAN_MOTION    = 15.49349705
ECCENTRICITY   = .00012711
INCLINATION    = 53.1599
RA_OF_ASC_NODE = 20.0513
ARG_OF_PERICENTER = 88.2617
MEAN_ANOMALY   = 271.8537

EPHEMERIS_TYPE = 0
CLASSIFICATION_TYPE = U
NORAD_CAT_ID   = 66222
ELEMENT_SET_NO = 999
REV_AT_EPOCH   = 491
BSTAR          = .87897088E-3
MEAN_MOTION_DOT = .48813E-3
MEAN_MOTION_DDOT = 0

CCSDS_OMM_VERS = 2.0
CREATION_DATE  = 
ORIGINATOR     = 

OBJECT_NAME    = STARLINK-35664
OBJECT_ID      = 2025-244T
CENTER_NAME    = EARTH
REF_FRAME      = TEME
TIME_SYSTEM    = UTC
MEAN_ELEMENT_THEORY = SGP/SGP4

EPOCH          = 2025-11-20T17:12:55.704096
MEAN_MOTION    = 15.49332624
ECCENTRICITY   = .00018681
INCLINATION    = 53.1600
RA_OF_ASC_NODE = 19.7457
ARG_OF_PERICENTER = 55.5831
MEAN_ANOMALY   = 304.5354

EPHEMERIS_TYPE = 0
CLASSIFICATION_TYPE = U
NORAD_CAT_ID   = 66223
ELEMENT_SET_NO = 999
REV_AT_EPOCH   = 492
BSTAR          = .12235339E-2
MEAN_MOTION_DOT = .68255E-3
MEAN_MOTION_DDOT = 0

